start=new Date('2021-12-25T00:00:00.000Z').valueOf();
sats=[{"DECAY_DATE":null,"FILE":"3250462","MEAN_ELEMENT_THEORY":"SGP4","EPOCH":"2021-12-24T13:07:31.117152","TLE_LINE2":"2 47840  53.0546 287.6254 0002129  52.6223 307.4959 15.06416978 45346","COUNTRY_CODE":"US","RCS_SIZE":"LARGE","CENTER_NAME":"EARTH","MEAN_MOTION_DDOT":"0.0000000000000","CLASSIFICATION_TYPE":"U","ARG_OF_PERICENTER":"52.6223","MEAN_ANOMALY":"307.4959","APOAPSIS":"548.636","SEMIMAJOR_AXIS":"6925.297","GP_ID":"192398266","NORAD_CAT_ID":"47840","PERIAPSIS":"545.687","LAUNCH_DATE":"2021-03-11","OBJECT_NAME":"STARLINK-2432","OBJECT_TYPE":"PAYLOAD","MEAN_MOTION":"15.06416978","REF_FRAME":"TEME","RA_OF_ASC_NODE":"287.6254","PERIOD":"95.591","TLE_LINE1":"1 47840U 21018BF  21358.54688793  .00009865  00000-0  67996-3 0  9992","REV_AT_EPOCH":"4534","INCLINATION":"53.0546","ELEMENT_SET_NO":"999","BSTAR":"0.00067996000000","EPHEMERIS_TYPE":"0","ECCENTRICITY":"0.00021290","SITE":"AFETR","TIME_SYSTEM":"UTC","OBJECT_ID":"2021-018BF","MEAN_MOTION_DOT":"0.00009865"},{"RCS_SIZE":"LARGE","CENTER_NAME":"EARTH","TLE_LINE2":"2 47841  53.0542 286.4491 0002490  68.9841 291.1414 15.06406397 45383","EPOCH":"2021-12-24T19:24:22.590720","COUNTRY_CODE":"US","MEAN_ELEMENT_THEORY":"SGP4","FILE":"3250462","DECAY_DATE":null,"LAUNCH_DATE":"2021-03-11","OBJECT_NAME":"STARLINK-2433","NORAD_CAT_ID":"47841","PERIAPSIS":"545.470","GP_ID":"192397014","SEMIMAJOR_AXIS":"6925.329","ARG_OF_PERICENTER":"68.9841","APOAPSIS":"548.918","MEAN_ANOMALY":"291.1414","CLASSIFICATION_TYPE":"U","MEAN_MOTION_DDOT":"0.0000000000000","TLE_LINE1":"1 47841U 21018BG  21358.80859480  .00006130  00000-0  43001-3 0  9998","PERIOD":"95.592","RA_OF_ASC_NODE":"286.4491","REF_FRAME":"TEME","MEAN_MOTION":"15.06406397","OBJECT_TYPE":"PAYLOAD","MEAN_MOTION_DOT":"0.00006130","ECCENTRICITY":"0.00024900","SITE":"AFETR","TIME_SYSTEM":"UTC","OBJECT_ID":"2021-018BG","EPHEMERIS_TYPE":"0","BSTAR":"0.00043001000000","REV_AT_EPOCH":"4538","INCLINATION":"53.0542","ELEMENT_SET_NO":"999"},{"MEAN_MOTION_DDOT":"0.0000000000000","CLASSIFICATION_TYPE":"U","APOAPSIS":"548.682","MEAN_ANOMALY":"299.1368","ARG_OF_PERICENTER":"60.9811","SEMIMAJOR_AXIS":"6925.499","GP_ID":"192397264","NORAD_CAT_ID":"47842","PERIAPSIS":"546.047","OBJECT_NAME":"STARLINK-2434","LAUNCH_DATE":"2021-03-11","DECAY_DATE":null,"FILE":"3250462","MEAN_ELEMENT_THEORY":"SGP4","TLE_LINE2":"2 47842  53.0553 317.4212 0001903  60.9811 299.1368 15.06350765 44987","COUNTRY_CODE":"US","EPOCH":"2021-12-24T14:17:52.139904","CENTER_NAME":"EARTH","RCS_SIZE":"LARGE","ELEMENT_SET_NO":"999","REV_AT_EPOCH":"4498","INCLINATION":"53.0553","BSTAR":"0.00075800000000","EPHEMERIS_TYPE":"0","TIME_SYSTEM":"UTC","OBJECT_ID":"2021-018BH","SITE":"AFETR","ECCENTRICITY":"0.00019030","MEAN_MOTION_DOT":"0.00011012","OBJECT_TYPE":"PAYLOAD","MEAN_MOTION":"15.06350765","REF_FRAME":"TEME","RA_OF_ASC_NODE":"317.4212","PERIOD":"95.595","TLE_LINE1":"1 47842U 21018BH  21358.59574236  .00011012  00000-0  75800-3 0  9995"},{"SEMIMAJOR_AXIS":"6925.373","GP_ID":"192397516","PERIAPSIS":"545.939","NORAD_CAT_ID":"47843","OBJECT_NAME":"STARLINK-2435","LAUNCH_DATE":"2021-03-11","MEAN_MOTION_DDOT":"0.0000000000000","CLASSIFICATION_TYPE":"U","MEAN_ANOMALY":"304.2866","APOAPSIS":"548.537","ARG_OF_PERICENTER":"55.8301","TLE_LINE2":"2 47843  53.0570 312.5429 0001876  55.8301 304.2866 15.06391971 45019","EPOCH":"2021-12-24T13:38:41.913024","COUNTRY_CODE":"US","CENTER_NAME":"EARTH","RCS_SIZE":"LARGE","DECAY_DATE":null,"FILE":"3250462","MEAN_ELEMENT_THEORY":"SGP4","MEAN_MOTION_DOT":"0.00000996","ELEMENT_SET_NO":"999","INCLINATION":"53.0570","REV_AT_EPOCH":"4501","EPHEMERIS_TYPE":"0","BSTAR":"0.00008581000000","OBJECT_ID":"2021-018BJ","TIME_SYSTEM":"UTC","SITE":"AFETR","ECCENTRICITY":"0.00018760","REF_FRAME":"TEME","RA_OF_ASC_NODE":"312.5429","PERIOD":"95.593","TLE_LINE1":"1 47843U 21018BJ  21358.56854066  .00000996  00000-0  85810-4 0  9997","OBJECT_TYPE":"PAYLOAD","MEAN_MOTION":"15.06391971"},{"RA_OF_ASC_NODE":"306.0508","REF_FRAME":"TEME","TLE_LINE1":"1 47844U 21018BK  21358.89889600  .00004408  00000-0  31463-3 0  9992","PERIOD":"95.592","OBJECT_TYPE":"PAYLOAD","MEAN_MOTION":"15.06404705","MEAN_MOTION_DOT":"0.00004408","EPHEMERIS_TYPE":"0","BSTAR":"0.00031463000000","REV_AT_EPOCH":"4511","INCLINATION":"53.0553","ELEMENT_SET_NO":"999","ECCENTRICITY":"0.00017770","SITE":"AFETR","TIME_SYSTEM":"UTC","OBJECT_ID":"2021-018BK","EPOCH":"2021-12-24T21:34:24.614400","TLE_LINE2":"2 47844  53.0553 306.0508 0001777  54.8112 305.3044 15.06404705 45117","COUNTRY_CODE":"US","RCS_SIZE":"LARGE","CENTER_NAME":"EARTH","DECAY_DATE":null,"MEAN_ELEMENT_THEORY":"SGP4","FILE":"3250462","GP_ID":"192397767","SEMIMAJOR_AXIS":"6925.334","LAUNCH_DATE":"2021-03-11","OBJECT_NAME":"STARLINK-2446","PERIAPSIS":"545.969","NORAD_CAT_ID":"47844","CLASSIFICATION_TYPE":"U","MEAN_MOTION_DDOT":"0.0000000000000","ARG_OF_PERICENTER":"54.8112","APOAPSIS":"548.430","MEAN_ANOMALY":"305.3044"},{"DECAY_DATE":null,"FILE":"3250462","MEAN_ELEMENT_THEORY":"SGP4","TLE_LINE2":"2 47845  53.0543 306.2748 0002570  58.1465 301.9774 15.06427266 45114","EPOCH":"2021-12-24T20:25:24.066336","COUNTRY_CODE":"US","CENTER_NAME":"EARTH","RCS_SIZE":"LARGE","MEAN_MOTION_DDOT":"0.0000000000000","CLASSIFICATION_TYPE":"U","APOAPSIS":"548.910","MEAN_ANOMALY":"301.9774","ARG_OF_PERICENTER":"58.1465","SEMIMAJOR_AXIS":"6925.265","GP_ID":"192396515","NORAD_CAT_ID":"47845","PERIAPSIS":"545.350","OBJECT_NAME":"STARLINK-2453","LAUNCH_DATE":"2021-03-11","OBJECT_TYPE":"PAYLOAD","MEAN_MOTION":"15.06427266","REF_FRAME":"TEME","RA_OF_ASC_NODE":"306.2748","PERIOD":"95.590","TLE_LINE1":"1 47845U 21018BL  21358.85097299  .00012387  00000-0  84835-3 0  9990","ELEMENT_SET_NO":"999","INCLINATION":"53.0543","REV_AT_EPOCH":"4511","EPHEMERIS_TYPE":"0","BSTAR":"0.00084835000000","TIME_SYSTEM":"UTC","OBJECT_ID":"2021-018BL","ECCENTRICITY":"0.00025700","SITE":"AFETR","MEAN_MOTION_DOT":"0.00012387"},{"MEAN_MOTION":"15.06407791","OBJECT_TYPE":"PAYLOAD","TLE_LINE1":"1 47846U 21018BM  21358.84728520  .00003001  00000-0  22026-3 0  9995","PERIOD":"95.592","RA_OF_ASC_NODE":"306.2898","REF_FRAME":"TEME","SITE":"AFETR","ECCENTRICITY":"0.00017970","TIME_SYSTEM":"UTC","OBJECT_ID":"2021-018BM","EPHEMERIS_TYPE":"0","BSTAR":"0.00022026000000","REV_AT_EPOCH":"4516","INCLINATION":"53.0545","ELEMENT_SET_NO":"999","MEAN_MOTION_DOT":"0.00003001","MEAN_ELEMENT_THEORY":"SGP4","FILE":"3250462","DECAY_DATE":null,"RCS_SIZE":"LARGE","CENTER_NAME":"EARTH","TLE_LINE2":"2 47846  53.0545 306.2898 0001797  56.2992 303.8168 15.06407791 45161","COUNTRY_CODE":"US","EPOCH":"2021-12-24T20:20:05.441280","ARG_OF_PERICENTER":"56.2992","MEAN_ANOMALY":"303.8168","APOAPSIS":"548.434","CLASSIFICATION_TYPE":"U","MEAN_MOTION_DDOT":"0.0000000000000","LAUNCH_DATE":"2021-03-11","OBJECT_NAME":"STARLINK-2456","PERIAPSIS":"545.945","NORAD_CAT_ID":"47846","GP_ID":"192396765","SEMIMAJOR_AXIS":"6925.325"},{"MEAN_ELEMENT_THEORY":"SGP4","FILE":"3250462","DECAY_DATE":null,"CENTER_NAME":"EARTH","RCS_SIZE":"LARGE","COUNTRY_CODE":"US","TLE_LINE2":"2 47860  53.0554 337.1662 0001719  55.5572 304.5580 15.06404760 44437","EPOCH":"2021-12-24T15:40:07.170528","MEAN_ANOMALY":"304.5580","APOAPSIS":"548.389","ARG_OF_PERICENTER":"55.5572","CLASSIFICATION_TYPE":"U","MEAN_MOTION_DDOT":"0.0000000000000","OBJECT_NAME":"STARLINK-2258","LAUNCH_DATE":"2021-03-14","NORAD_CAT_ID":"47860","PERIAPSIS":"546.009","GP_ID":"192398268","SEMIMAJOR_AXIS":"6925.334","MEAN_MOTION":"15.06404760","OBJECT_TYPE":"PAYLOAD","TLE_LINE1":"1 47860U 21021A   21358.65286077  .00004746  00000-0  33725-3 0  9995","PERIOD":"95.592","RA_OF_ASC_NODE":"337.1662","REF_FRAME":"TEME","OBJECT_ID":"2021-021A","TIME_SYSTEM":"UTC","ECCENTRICITY":"0.00017190","SITE":"AFETR","EPHEMERIS_TYPE":"0","BSTAR":"0.00033725000000","ELEMENT_SET_NO":"999","REV_AT_EPOCH":"4443","INCLINATION":"53.0554","MEAN_MOTION_DOT":"0.00004746"},{"MEAN_MOTION":"15.06400853","OBJECT_TYPE":"PAYLOAD","TLE_LINE1":"1 47861U 21021B   21358.86986518  .00000810  00000-0  73304-4 0  9992","PERIOD":"95.592","RA_OF_ASC_NODE":"321.1933","REF_FRAME":"TEME","TIME_SYSTEM":"UTC","OBJECT_ID":"2021-021B","ECCENTRICITY":"0.00017800","SITE":"AFETR","BSTAR":"0.00007330400000","EPHEMERIS_TYPE":"0","ELEMENT_SET_NO":"999","REV_AT_EPOCH":"4478","INCLINATION":"53.0554","MEAN_MOTION_DOT":"0.00000810","MEAN_ELEMENT_THEORY":"SGP4","FILE":"3250462","DECAY_DATE":null,"CENTER_NAME":"EARTH","RCS_SIZE":"LARGE","COUNTRY_CODE":"US","TLE_LINE2":"2 47861  53.0554 321.1933 0001780  54.9060 305.2096 15.06400853 44782","EPOCH":"2021-12-24T20:52:36.351552","APOAPSIS":"548.444","MEAN_ANOMALY":"305.2096","ARG_OF_PERICENTER":"54.9060","CLASSIFICATION_TYPE":"U","MEAN_MOTION_DDOT":"0.0000000000000","OBJECT_NAME":"STARLINK-2280","LAUNCH_DATE":"2021-03-14","NORAD_CAT_ID":"47861","PERIAPSIS":"545.978","GP_ID":"192397016","SEMIMAJOR_AXIS":"6925.346"},{"APOAPSIS":"548.514","MEAN_ANOMALY":"312.4996","ARG_OF_PERICENTER":"47.6146","MEAN_MOTION_DDOT":"0.0000000000000","CLASSIFICATION_TYPE":"U","PERIAPSIS":"545.996","NORAD_CAT_ID":"47862","OBJECT_NAME":"STARLINK-2291","LAUNCH_DATE":"2021-03-14","SEMIMAJOR_AXIS":"6925.390","GP_ID":"192397266","FILE":"3250462","MEAN_ELEMENT_THEORY":"SGP4","DECAY_DATE":null,"CENTER_NAME":"EARTH","RCS_SIZE":"LARGE","COUNTRY_CODE":"US","TLE_LINE2":"2 47862  53.0564 315.9781 0001818  47.6146 312.4996 15.06386624 44858","EPOCH":"2021-12-24T21:59:38.056416","OBJECT_ID":"2021-021C","TIME_SYSTEM":"UTC","ECCENTRICITY":"0.00018180","SITE":"AFETR","ELEMENT_SET_NO":"999","REV_AT_EPOCH":"4485","INCLINATION":"53.0564","EPHEMERIS_TYPE":"0","BSTAR":"0.00003995700000","MEAN_MOTION_DOT":"0.00000313","MEAN_MOTION":"15.06386624","OBJECT_TYPE":"PAYLOAD","PERIOD":"95.593","TLE_LINE1":"1 47862U 21021C   21358.91641269  .00000313  00000-0  39957-4 0  9994","REF_FRAME":"TEME","RA_OF_ASC_NODE":"315.9781"}];
